IRIDIUM 166             
1 43570U 18061B   24211.72627780  .00000364  00000+0  12283-3 0  9995
2 43570  86.4003 344.0315 0002387  88.6300 271.5169 14.34219512314862
IRIDIUM 158             
1 43571U 18061C   24211.62479599  .00000117  00000+0  34751-4 0  9999
2 43571  86.4003 344.0832 0002148  90.3839 269.7603 14.34218655314813
IRIDIUM 165             
1 43572U 18061D   24211.44086050  .00000482  00000+0  16493-3 0  9993
2 43572  86.4005 344.1934 0002109  90.2579 269.8859 14.34219698314819
IRIDIUM 155             
1 43573U 18061E   24211.75164854  .00000228  00000+0  74270-4 0  9993
2 43573  86.3999 343.9666 0002392  87.8489 272.2981 14.34218937314826
IRIDIUM 154             
1 43574U 18061F   24211.80238906  .00000233  00000+0  76113-4 0  9994
2 43574  86.4004 344.0451 0002180  99.4110 260.7332 14.34218292314886
IRIDIUM 163             
1 43575U 18061G   24211.71359139  .00000206  00000+0  66412-4 0  9998
2 43575  86.4003 344.0192 0002260  95.8046 264.3407 14.34219452314843
IRIDIUM 156             
1 43576U 18061H   24211.89752864  .00000174  00000+0  55197-4 0  9992
2 43576  86.4002 343.9488 0002111  89.6022 270.5416 14.34218349314864
IRIDIUM 164             
1 43577U 18061J   24211.80873034  .00000274  00000+0  90901-4 0  9990
2 43577  86.4003 344.0154 0001892  95.7821 264.3590 14.34219330314896
